[{"OBJECT_NAME":"STARLINK-2166","OBJECT_ID":"2021-041F","EPOCH":"2026-03-09T12:57:50.425344","MEAN_MOTION":15.30192658,"ECCENTRICITY":0.00013094,"INCLINATION":53.1605,"RA_OF_ASC_NODE":127.4061,"ARG_OF_PERICENTER":94.8263,"MEAN_ANOMALY":265.2887,"EPHEMERIS_TYPE":0,"CLASSIFICATION_TYPE":"U","NORAD_CAT_ID":48558,"ELEMENT_SET_NO":999,"REV_AT_EPOCH":26439,"BSTAR":8.4270474e-5,"MEAN_MOTION_DOT":2.137e-5,"MEAN_MOTION_DDOT":0},{"OBJECT_NAME":"DONGPO 10","OBJECT_ID":"2022-167H","EPOCH":"2026-03-09T22:44:56.137344","MEAN_MOTION":15.322785,"ECCENTRICITY":0.00061655,"INCLINATION":97.685,"RA_OF_ASC_NODE":235.0962,"ARG_OF_PERICENTER":106.9526,"MEAN_ANOMALY":253.2392,"EPHEMERIS_TYPE":0,"CLASSIFICATION_TYPE":"U","NORAD_CAT_ID":54689,"ELEMENT_SET_NO":999,"REV_AT_EPOCH":18015,"BSTAR":0.00049390523,"MEAN_MOTION_DOT":0.00015333,"MEAN_MOTION_DDOT":0}]
